0 SL-6 R/B(2)
1 16402U 85117F   19235.35858648 +.00000658 +00000-0 +00000-0 0  9991
2 16402 064.1811 301.6271 6902234 265.8124 019.5254 01.96556840241636
0 SL-12 R/B(2)
1 16404U 85118F   19235.02669098 -.00000001  00000-0  00000+0 0  9999
2 16404  66.0688  45.9885 0006461  25.5042 147.6577  2.13166143262278
0 METEOR 2-13
1 16408U 85119A   19236.04531134  .00000024  00000-0  85838-5 0  9998
2 16408  82.5338  78.2076 0014633 281.1822  78.7694 13.85361022701607
0 SL-14 R/B
1 16409U 85119B   19236.27345807  .00000017  00000-0  23299-5 0  9999
2 16409  82.5343  84.1786 0013899 309.3873  50.6055 13.84808107701272
0 SL-12 R/B(AUX MOTOR)
1 16445U 85118K   19235.65322255 -.00000086 +00000-0 -12774-3 0  9993
2 16445 065.2583 357.8394 5633401 124.7267 301.8739 04.26306278515405
0 SL-12 R/B(AUX MOTOR)
1 16446U 85118L   19236.37119082  .00000045  00000-0  52189-5 0  9995
2 16446  64.9300 189.9879 5643916 136.8654 284.8385  4.40032958528427
0 COSMOS 1716
1 16449U 86002A   19235.90351709 -.00000023 +00000-0 -50552-4 0  9992
2 16449 073.9876 096.9544 0018067 237.3757 250.2766 12.46877906530342
0 COSMOS 1717
1 16450U 86002B   19235.97221512 +.00000003 +00000-0 +13055-3 0  9991
2 16450 073.9869 215.9697 0023474 066.5982 356.3865 12.42953636525497
0 COSMOS 1718
1 16451U 86002C   19235.92366650 -.00000013 +00000-0 +19853-4 0  9995
2 16451 073.9898 152.2333 0013606 335.5915 092.1757 12.45055265528044
0 COSMOS 1719
1 16452U 86002D   19235.96005941 -.00000003 +00000-0 +83243-4 0  9996
2 16452 073.9895 037.4625 0018461 132.9082 344.9820 12.48838058532741
0 COSMOS 1720
1 16453U 86002E   19235.81438052 -.00000015  00000-0  72299-5 0  9997
2 16453  73.9920 343.8071 0027557  63.1117  98.4945 12.50591964535073
0 COSMOS 1721
1 16454U 86002F   19235.91434951 -.00000020 +00000-0 -25620-4 0  9995
2 16454 073.9885 290.3196 0036564 354.1456 059.2551 12.52341531537069
0 COSMOS 1722
1 16455U 86002G   19236.48245552 -.00000003  00000-0  86455-4 0  9999
2 16455  73.9858 238.4842 0046620 296.3840 182.0582 12.53997376539313
0 COSMOS 1723
1 16456U 86002H   19236.18633222 -.00000003  00000-0  84270-4 0  9995
2 16456  73.9891 184.7862 0052926 225.7880 239.9784 12.55758553541427
0 SL-8 R/B
1 16457U 86002J   19235.89962088 +.00000010 +00000-0 +22720-3 0  9996
2 16457 073.9925 155.0527 0134143 123.0516 301.2975 12.20751417401933
0 SATCOM K1
1 16482U 86003B   19235.40542293  .00000010  00000-0  00000+0 0  9997
2 16482  15.1102  11.3546 0001387 136.3232 218.7176  0.99551532 99652
0 SATCOM K1 R/B(PAM-D2)
1 16483U 86003C   19235.06107738 -.00000284  00000-0 -27545-4 0  9994
2 16483  27.1946  87.0161 7096859 246.3275  27.8158  2.45554009292603
0 COSMOS 1725
1 16493U 86005A   19236.48573407  .00000039  00000-0  25379-4 0  9993
2 16493  82.9309 228.5059 0020922 292.4708 177.7592 13.74654728730492
0 SL-8 R/B
1 16494U 86005B   19236.44395552  .00000096  00000-0  82519-4 0  9995
2 16494  82.9325 198.0334 0019897 161.1294 316.5630 13.76498115687731
0 COSMOS 1726
1 16495U 86006A   19236.41809344  .00000465  00000-0  17463-4 0  9999
2 16495  82.4755 349.8413 0011187 275.5006  84.4955 15.24551695837885
0 SL-14 R/B
1 16496U 86006B   19236.78306550  .00000046  00000-0  26488-5 0  9994
2 16496  82.5279 341.0574 0018180 317.2399 199.0245 14.84116242815790
0 RADUGA 18
1 16497U 86007A   19235.42882510  .00000026  00000-0  00000+0 0  9995
2 16497  14.3021 341.2109 0071347 136.8076 238.1606  0.98811486121312
0 COSMOS 1727
1 16510U 86008A   19236.46987979 -.00000001  00000-0 -16890-4 0  9996
2 16510  82.9498  13.5633 0037367 331.8575  90.1301 13.74400641684130
0 SL-8 R/B
1 16511U 86008B   19235.82968612  .00000021  00000-0  55765-5 0  9994
2 16511  82.9476 348.3778 0023514 211.6003 259.1504 13.75810514685954
0 STTW-1
1 16526U 86010A   19235.76368663 -.00000272 +00000-0 +00000-0 0  9992
2 16526 014.0941 343.8704 0001014 319.7993 037.9189 01.00229140130490
0 COSMOS 1729
1 16527U 86011A   19236.12063326  .00000115  00000-0  00000+0 0  9997
2 16527  70.7545 273.2928 4662592 113.3463 295.0419  2.00516820245947
0 CZ-3 R/B
1 16528U 86010B   19236.34347258 -.00000329  00000-0 -44325-3 0  9991
2 16528  31.1345  31.2940 7165637 294.3727   9.2449  2.31597708231577
0 SL-6 R/B(2)
1 16533U 86011F   19235.88277778 +.00000190 +00000-0 +00000-0 0  9998
2 16533 070.7899 225.5617 4613834 077.1727 046.7448 02.04051944233266
0 ATLAS H R/B
1 16592U 86014B   19236.57725335  .00000335  00000-0  23868-3 0  9991
2 16592  63.3166  57.4245 0475929 117.6520 247.3664 13.66912829 19431
0 COSMOS 1732
1 16593U 86015A   19235.93878317 -.00000008 +00000-0 +65658-4 0  9993
2 16593 073.6107 041.1617 0026480 028.2816 331.9658 12.40982230519008
0 SL-14 R/B
1 16594U 86015B   19235.88221462 -.00000025  00000-0 -55588-4 0  9992
2 16594  73.6105  25.7805 0026745  19.5662 142.7193 12.41487576519860
0 BS-2B (YURI 2B)
1 16597U 86016A   19235.49230245 -.00000009 +00000-0 +00000-0 0  9998
2 16597 014.9135 352.1864 0012321 153.1305 204.8009 00.99292095103393
0 COSMOS 1733
1 16611U 86018A   19236.45910052  .00000461  00000-0  21557-4 0  9990
2 16611  82.4915 328.0880 0014096  92.4248 267.8599 15.17144289829999
0 SL-14 R/B
1 16612U 86018B   19236.54439163  .00000054  00000-0  35101-5 0  9999
2 16612  82.5145 267.3505 0018694  41.9282 109.3010 14.84235819709875
0 SPOT 1
1 16613U 86019A   19236.48742484 -.00000010  00000-0  82891-5 0  9998
2 16613  98.6565 339.1190 0143617  84.0537 331.0334 14.65139368446369
0 VIKING
1 16614U 86019B   19235.71412806 +.00000123 +00000-0 +77069-3 0  9999
2 16614 098.7261 168.3476 4690167 100.3292 345.4732 05.50549792673222
0 ARIANE 1 R/B
1 16615U 86019C   19235.92454319 -.00000000 +00000-0 +16127-4 0  9992
2 16615 098.5181 302.5089 0011232 207.9983 270.5205 14.31762701753566
0 ARIANE 1 DEB
1 16616U 86019D   19235.77895215 -.00000005 +00000-0 +14737-4 0  9990
2 16616 098.5007 297.3099 0008496 040.1645 070.6582 14.29085829742523
0 USA 15 DEB
1 16623U 86014D   19235.28713566 +.00027384 +00000-0 +66728-3 0  9991
2 16623 063.2763 196.9990 0367018 077.5968 286.5923 14.92956027003268
0 USA 16
1 16624U 86014E   19235.53815219 -.00000060 +00000-0 +12226-4 0  9996
2 16624 063.2981 265.0946 0918907 070.4860 299.3009 13.45942964011608
0 USA 17
1 16625U 86014F   19236.41237372  .00000127  00000-0  30248-4 0  9990
2 16625  63.2992 259.8603 0917723  70.3232 299.4427 13.46414708  5316
0 USA 15 DEB
1 16630U 86014G   19236.15002792  .00011857  00000-0  49506-3 0  9991
2 16630  63.2761  36.8374 0516131  76.0980 289.6936 14.50483838 12551
0 USA 18
1 16631U 86014H   19236.33044018  .00000221  00000-0  34324-4 0  9995
2 16631  63.2958 262.3334 0935344  63.2440 306.1180 13.46995580  5310
0 COSMOS 1736
1 16647U 86024A   19235.86057103 -.00000069 +00000-0 +17927-4 0  9990
2 16647 064.9865 210.7574 0058130 292.2404 147.8177 13.79423475685065
0 GSTAR 2
1 16649U 86026A   19235.73910024 -.00000352 +00000-0 +00000-0 0  9995
2 16649 015.2460 006.3010 0006517 351.9329 001.8053 00.99798438091797
0 BRAZILSAT 2
1 16650U 86026B   19235.65731539 +.00000075 +00000-0 +00000-0 0  9991
2 16650 015.0448 010.5930 0004416 318.7880 300.9906 00.99635599021577
0 ARIANE 3 R/B
1 16657U 86026C   19236.33127348 -.00000081  00000-0 -46575-3 0  9990
2 16657   7.0077 316.2218 7223913 101.7147 340.3436  2.24626513223886
0 COSMOS 1738
1 16667U 86027A   19235.59969727 -.00000272 +00000-0 +00000-0 0  9995
2 16667 014.2095 339.5473 0013109 056.6664 294.2433 01.00256519122382
0 SL-12 R/B(2)
1 16676U 86027F   19235.74628421 -.00000130  00000-0  00000+0 0  9997
2 16676  15.3873 343.2835 0035590  79.0851 299.6737  0.97689492 95769
0 COSMOS 1741
1 16681U 86030A   19236.52910017 -.00000008  00000-0  66236-5 0  9992
2 16681  74.0228 279.7451 0017903  77.1233 283.1916 14.32986643742958
0 SL-8 R/B
1 16682U 86030B   19236.40889274 -.00000060  00000-0 -11400-4 0  9991
2 16682  74.0248 200.3384 0015096 338.0056 138.6384 14.35886029745742
0 THORAD AGENA D DEB
1 16715U 70025PA  19235.73063517 +.00000026 +00000-0 +96436-4 0  9996
2 16715 099.9549 319.6765 0006931 166.2604 344.3699 13.60256443707172
0 COSMOS 1743
1 16719U 86034A   19235.64978595 +.00000525 +00000-0 +26015-4 0  9998
2 16719 082.5517 290.5011 0013228 047.7447 068.2176 15.15482113816175
0 SL-14 R/B
1 16720U 86034B   19236.48165285  .00000056  00000-0  39297-5 0  9993
2 16720  82.5531 217.1826 0019951 352.4058 125.3501 14.83371182797605
0 COSMOS 1745
1 16727U 86037A   19236.82235208  .00000008  00000-0 -69990-5 0  9995
2 16727  82.9599 142.4970 0030137 301.0631 119.1483 13.74196801667659
0 SL-8 R/B
1 16728U 86037B   19235.73766076  .00000004  00000-0 -12065-4 0  9993
2 16728  82.9533 106.1654 0031792 131.2617 291.3162 13.76716410670274
0 EKRAN 15
1 16729U 86038A   19235.73386609 -.00000081  00000-0  00000+0 0  9991
2 16729  15.2440 341.8804 0011613 322.6320  27.0965  0.96545815 94310
0 SL-12 R/B(2)
1 16732U 86038D   19235.13310429 -.00000101 +00000-0 +00000-0 0  9990
2 16732 012.9950 335.0844 0019940 109.3112 258.1957 01.01369256099305
0 METEOR 2-14
1 16735U 86039A   19235.78796470  .00000027  00000-0  10497-4 0  9990
2 16735  82.5349 108.1564 0014900   8.2803  60.1239 13.85295165680308
0 SL-14 R/B
1 16736U 86039B   19236.17821792  .00000019  00000-0  38272-5 0  9994
2 16736  82.5365 112.1589 0013428  22.6138 337.5611 13.84751442680134
0 COSMOS 1748
1 16758U 86042A   19236.52243767 -.00000013  00000-0  20545-4 0  9999
2 16758  74.0209   8.0829 0010831 237.9099 190.5297 12.50744605516841
0 COSMOS 1749
1 16759U 86042B   19235.95932123 -.00000018 +00000-0 -80139-5 0  9999
2 16759 074.0182 146.9955 0048653 322.8482 112.6702 12.58061612525380
0 COSMOS 1750
1 16760U 86042C   19236.21693282 -.00000023  00000-0 -44107-4 0  9991
2 16760  74.0161 205.6420 0039094  39.9927  64.2008 12.56120488523304
0 COSMOS 1751
1 16761U 86042D   19235.92239514 -.00000023 +00000-0 -51455-4 0  9997
2 16761 074.0176 185.4861 0024382 206.0119 209.9051 12.44852915509381
0 COSMOS 1752
1 16762U 86042E   19235.83845598 -.00000024  00000-0 -56219-4 0  9997
2 16762  74.0178 121.9124 0011337 135.7359 293.7785 12.46975288512190
